     3.02           N: GNSS NAV DATA    M: MIXED NAV DATA   RINEX VERSION / TYPE
NetR9 5.30          Receiver Operator   20180830 001654 UTC PGM / RUN BY / DATE
GPSA    .5588D-08   .1490D-07  -.5960D-07  -.1192D-06       IONOSPHERIC CORR
GPSB    .7782D+05   .3277D+05  -.6554D+05  -.2621D+06       IONOSPHERIC CORR
GAL     .4950D+02  -.6641D-01   .5798D-02   .0000D+00       IONOSPHERIC CORR
QZSA    .7451D-08  -.2235D-07  -.7153D-06  -.8941D-06       IONOSPHERIC CORR
QZSB    .9011D+05  -.2621D+06  -.4588D+07   .8323D+07       IONOSPHERIC CORR
GPUT  -.1862645149D-08 -.532907052D-14 319488 2016          TIME SYSTEM CORR
GAUT   .1862645149D-08 -.888178420D-15 345600 2016          TIME SYSTEM CORR
QZUT   .1862645149D-08  .000000000D+00 528384 2016          TIME SYSTEM CORR
    18    18  1929     7                                    LEAP SECONDS
                                                            END OF HEADER
E25 2018 08 30 00 40 00  .205733469920D-02 -.110986775326D-10  .000000000000D+00
      .680000000000D+02 -.656250000000D+02  .302084011583D-08 -.203826441568D+01
     -.306777656078D-05  .396944582462D-03  .462494790554D-05  .544061075783D+04
      .348000000000D+06 -.447034835815D-07 -.598775782832D+00  .111758708954D-07
      .991182689069D+00  .257000000000D+03 -.238199611680D+01 -.568809407481D-08
     -.507521140293D-09  .258000000000D+03  .201600000000D+04
      .107000000000D+03  .000000000000D+00 -.186264514923D-08  .000000000000D+00
      .348780000000D+06
J01 2018 08 30 02 00 00 -.123757403344D-03  .136424205266D-10  .000000000000D+00
      .165000000000D+03 -.574562500000D+03  .924324216099D-09  .132759417487D+01
     -.183433294296D-04  .756722613005D-01  .115130096674D-04  .649419022369D+04
      .352800000000D+06  .183470547199D-05  .312200236064D+01 -.728294253349D-06
      .718569931139D+00 -.126781250000D+03 -.155785498920D+01 -.138934358602D-08
     -.351443210449D-09  .200000000000D+01  .201600000000D+04  .100000000000D+01
      .340000000000D+01  .000000000000D+00 -.651925802231D-08  .933000000000D+03
      .349206000000D+06  .400000000000D+01
R18 2018 08 30 01 15 00  .208655372262D-03  .909494701773D-12  .360000000000D+04
     -.958052685547D+04 -.193184375763D+01 -.186264514923D-08  .700000000000D+01
      .483796826172D+04 -.251424884796D+01  .000000000000D+00 -.300000000000D+01
      .231493393555D+05 -.269243240356D+00 -.186264514923D-08  .000000000000D+00
R16 2018 08 30 01 15 00  .100472941995D-03  .909494701773D-12  .360000000000D+04
     -.676237939453D+04 -.135657310486D+00  .000000000000D+00  .000000000000D+00
      .240160361328D+05  .763950347900D+00 -.186264514923D-08 -.100000000000D+01
      .554552880859D+04 -.345417881012D+01  .000000000000D+00  .000000000000D+00
R19 2018 08 30 01 15 00 -.587282702327D-04  .000000000000D+00  .360000000000D+04
      .306610156250D+04 -.132370185852D+01  .931322574615D-09  .000000000000D+00
      .179229926758D+05 -.207127666473D+01 -.931322574615D-09  .300000000000D+01
      .178861059570D+05  .230088424683D+01 -.186264514923D-08  .000000000000D+00
R17 2018 08 30 01 15 00  .160080380738D-03  .272848410532D-11  .360000000000D+04
     -.170987387695D+05 -.141864776611D+01 -.372529029846D-08  .000000000000D+00
     -.105488281250D+05 -.162447357178D+01  .000000000000D+00  .400000000000D+01
      .156929379883D+05 -.264157772064D+01 -.931322574615D-09  .000000000000D+00
R03 2018 08 30 01 15 00  .141873024404D-03  .909494701773D-12  .360000000000D+04
     -.248591635742D+05  .805686950684D+00 -.465661287308D-08  .000000000000D+00
      .492154785156D+03  .523471832275D-01 -.931322574615D-09  .500000000000D+01
      .583221044922D+04  .344935703278D+01  .000000000000D+00  .000000000000D+00
R02 2018 08 30 01 15 00  .327177345753D-03  .181898940355D-11  .360000000000D+04
     -.141287768555D+05  .269902801514D+01 -.279396772385D-08  .000000000000D+00
     -.763777001953D+04 -.261115074158D+00  .000000000000D+00 -.400000000000D+01
      .198725922852D+05  .181750202179D+01 -.186264514923D-08  .000000000000D+00
R09 2018 08 30 01 15 00  .257734209299D-04  .181898940355D-11  .360000000000D+04
      .459861328125D+04 -.103907108307D+01  .931322574615D-09  .000000000000D+00
      .145079912109D+05  .260000610352D+01 -.931322574615D-09 -.200000000000D+01
      .204656997070D+05 -.161752891541D+01 -.186264514923D-08  .000000000000D+00
R15 2018 08 30 01 15 00 -.154627487063D-04  .000000000000D+00  .360000000000D+04
     -.139850205078D+05  .935830116272D+00 -.186264514923D-08  .000000000000D+00
      .155968330078D+05 -.177564144135D+01 -.186264514923D-08  .000000000000D+00
     -.146070292969D+05 -.278102970123D+01  .186264514923D-08  .000000000000D+00
C10 2018 08 30 01 00 00 -.311718322337D-04 -.306776826164D-10  .000000000000D+00
      .100000000000D+01 -.337984375000D+03  .185436295595D-08 -.111947163254D+01
     -.113919377327D-04  .577054393943D-02  .472925603390D-05  .649329189110D+04
      .349200000000D+06 -.212341547012D-06 -.497598971383D+00 -.419095158577D-07
      .918017430699D+00  .819687500000D+02 -.266724918767D+01 -.260225125135D-08
     -.800390482333D-09  .000000000000D+00  .660000000000D+03  .000000000000D+00
      .240000000000D+01  .000000000000D+00  .610000006063D-08  .300000002618D-08
      .349200000000D+06  .000000000000D+00
C13 2018 08 30 01 00 00 -.251595396549D-03 -.192885707406D-10  .000000000000D+00
      .100000000000D+01  .356312500000D+03  .146791828755D-08 -.278280710704D+01
      .119041651487D-04  .328380800784D-02  .178720802069D-05  .649361418533D+04
      .349200000000D+06  .227242708206D-06  .163026247795D+01  .220723450184D-06
      .978955074094D+00  .199593750000D+03 -.311577250937D+01 -.254224875201D-08
      .830034574272D-09  .000000000000D+00  .660000000000D+03  .000000000000D+00
      .240000000000D+01  .000000000000D+00 -.999999993923D-08  .249999998481D-08
      .349200000000D+06  .000000000000D+00
C07 2018 08 30 01 00 00  .173388980329D-05 -.167696967424D-10  .000000000000D+00
      .100000000000D+01 -.349203125000D+03  .182757612588D-08 -.656488800754D+00
     -.118990428746D-04  .673559482675D-02  .447407364845D-05  .649377990723D+04
      .349200000000D+06 -.159256160259D-06 -.489051062048D+00 -.982545316219D-07
      .916752767278D+00  .827812500000D+02 -.274954837988D+01 -.259939398948D-08
     -.818605526777D-09  .000000000000D+00  .660000000000D+03  .000000000000D+00
      .240000000000D+01  .000000000000D+00  .144000003033D-07  .800000010681D-09
      .349200000000D+06  .000000000000D+00
C08 2018 08 30 01 00 00  .504749827087D-03  .155599977347D-10  .000000000000D+00
      .100000000000D+01  .307703125000D+03  .128898226271D-08 -.268039017116D+01
      .101393088698D-04  .359284260776D-02  .196043401957D-05  .649313409615D+04
      .349200000000D+06 -.130385160446D-07  .164358999958D+01  .319909304380D-06
      .101837879406D+01  .212187500000D+03 -.282457688971D+01 -.234545484047D-08
      .760388816103D-09  .000000000000D+00  .660000000000D+03  .000000000000D+00
      .240000000000D+01  .000000000000D+00  .110000000220D-07 -.800000010681D-09
      .349200000000D+06  .000000000000D+00
C01 2018 08 30 01 00 00  .274382764474D-04  .486553020096D-10  .000000000000D+00
      .100000000000D+01 -.354921875000D+03  .152756362916D-08 -.653915306952D+00
     -.118855386972D-04  .488403136842D-03  .201789662242D-04  .649352839470D+04
      .349200000000D+06 -.707805156708D-07 -.291307935635D+01  .265426933765D-07
      .630348651980D-01 -.617281250000D+03  .570810329227D-01 -.449661587353D-09
      .103218585183D-09  .000000000000D+00  .660000000000D+03  .000000000000D+00
      .240000000000D+01  .000000000000D+00  .142000002867D-07 -.103999999723D-07
      .349200000000D+06  .000000000000D+00
C04 2018 08 30 01 00 00  .152314431034D-03  .129665167492D-10  .000000000000D+00
      .100000000000D+01 -.467093750000D+03  .192258008318D-08 -.158125315990D+01
     -.155074521899D-04  .368236913346D-03  .154706649482D-04  .649343809128D+04
      .349200000000D+06 -.908039510250D-07 -.300846721224D+01 -.572763383389D-07
      .817565154299D-01 -.472109375000D+03  .143018362829D+01 -.957182727646D-09
      .667884962947D-10  .000000000000D+00  .660000000000D+03  .000000000000D+00
      .240000000000D+01  .000000000000D+00  .499999996961D-08 -.849999981511D-08
      .349200000000D+06  .000000000000D+00
C03 2018 08 30 01 00 00 -.189176178537D-03  .887885320822D-10  .000000000000D+00
      .100000000000D+01 -.456000000000D+03  .198972573721D-08  .195272605367D+01
     -.151251442730D-04  .434781308286D-03  .182548537850D-04  .649326798248D+04
      .349200000000D+06 -.139698386192D-07 -.299298322208D+01  .731088221073D-07
      .677526765252D-01 -.561078125000D+03 -.298453900585D+01 -.913252326339D-09
      .557166065346D-10  .000000000000D+00  .660000000000D+03  .000000000000D+00
      .240000000000D+01  .000000000000D+00  .370000008409D-08 -.999999993923D-08
      .349200000000D+06  .000000000000D+00
E12 2018 08 30 00 50 00  .493831915082D-02  .843556335894D-10  .000000000000D+00
      .690000000000D+02  .964687500000D+02  .296119477422D-08  .101554728100D+01
      .442378222942D-05  .248792697676D-03  .552646815777D-05  .544059816551D+04
      .348600000000D+06 -.596046447754D-07  .148929719278D+01 -.167638063431D-07
      .979824432181D+00  .231375000000D+03  .379693561498D+00 -.566702176849D-08
      .454661795632D-09  .516000000000D+03  .201600000000D+04
      .107000000000D+03  .000000000000D+00 -.160653144121D-07 -.162981450558D-07
      .349294000000D+06
